{
    "links": {
        "self": "http://www.neowsapp.com/rest/v1/neo/3602065?api_key=iIulBulltgU6a56xZRHN4H3l9WmuAYTsLGpBGhQ2"
    },
    "id": "3602065",
    "neo_reference_id": "3602065",
    "name": "(2012 FQ62)",
    "designation": "2012 FQ62",
    "nasa_jpl_url": "http://ssd.jpl.nasa.gov/sbdb.cgi?sstr=3602065",
    "absolute_magnitude_h": 25.9,
    "estimated_diameter": {
        "kilometers": {
            "estimated_diameter_min": 0.0175612318,
            "estimated_diameter_max": 0.0392681082
        },
        "meters": {
            "estimated_diameter_min": 17.561231848,
            "estimated_diameter_max": 39.2681081809
        },
        "miles": {
            "estimated_diameter_min": 0.0109120402,
            "estimated_diameter_max": 0.0244000636
        },
        "feet": {
            "estimated_diameter_min": 57.6155918963,
            "estimated_diameter_max": 128.8323800441
        }
    },
    "is_potentially_hazardous_asteroid": false,
    "close_approach_data": [
        {
            "close_approach_date": "2012-04-02",
            "close_approach_date_full": "2012-Apr-02 19:54",
            "epoch_date_close_approach": 1333396440000,
            "relative_velocity": {
                "kilometers_per_second": "22.0033513508",
                "kilometers_per_hour": "79212.0648627918",
                "miles_per_hour": "49219.2966365497"
            },
            "miss_distance": {
                "astronomical": "0.0145183102",
                "lunar": "5.6476226678",
                "kilometers": "2171908.281919274",
                "miles": "1349561.2263990212"
            },
            "orbiting_body": "Earth"
        },
        {
            "close_approach_date": "2013-11-26",
            "close_approach_date_full": "2013-Nov-26 03:54",
            "epoch_date_close_approach": 1385438040000,
            "relative_velocity": {
                "kilometers_per_second": "5.1796482385",
                "kilometers_per_hour": "18646.7336586406",
                "miles_per_hour": "11586.3551447259"
            },
            "miss_distance": {
                "astronomical": "1.4309824743",
                "lunar": "556.6521825027",
                "kilometers": "214071930.162609741",
                "miles": "133018129.2704307858"
            },
            "orbiting_body": "Juptr"
        }
    ],
    "orbital_data": {
        "orbit_id": "6",
        "orbit_determination_date": "2017-04-06 08:50:14",
        "first_observation_date": "2012-03-29",
        "last_observation_date": "2012-04-02",
        "data_arc_in_days": 4,
        "observations_used": 25,
        "orbit_uncertainty": "8",
        "minimum_orbit_intersection": ".0130986",
        "jupiter_tisserand_invariant": "3.271",
        "epoch_osculation": "2456016.5",
        "eccentricity": ".7270097677408315",
        "semi_major_axis": "2.185494948043628",
        "inclination": "1.097428060982248",
        "ascending_node_longitude": "56.85516510513089",
        "orbital_period": "1180.111757416045",
        "perihelion_distance": ".5966187734676696",
        "perihelion_argument": "224.3736170440295",
        "aphelion_distance": "3.774371122619587",
        "perihelion_time": "2456066.222228810064",
        "mean_anomaly": "344.8319430264667",
        "mean_motion": ".3050558540220382",
        "equinox": "J2000",
        "orbit_class": {
            "orbit_class_type": "APO",
            "orbit_class_description": "Near-Earth asteroid orbits which cross the Earth’s orbit similar to that of 1862 Apollo",
            "orbit_class_range": "a (semi-major axis) > 1.0 AU; q (perihelion) < 1.017 AU"
        }
    },
    "is_sentry_object": false
}